[{"OBJECT_NAME":"SL-16 R/B","OBJECT_ID":"1993-059B","EPOCH":"2026-04-19T11:37:40.965024","MEAN_MOTION":14.17238838,"ECCENTRICITY":0.00161223,"INCLINATION":70.9891,"RA_OF_ASC_NODE":285.0976,"ARG_OF_PERICENTER":155.0122,"MEAN_ANOMALY":205.1786,"EPHEMERIS_TYPE":0,"CLASSIFICATION_TYPE":"U","NORAD_CAT_ID":22803,"ELEMENT_SET_NO":999,"REV_AT_EPOCH":68531,"BSTAR":-7.0501236e-5,"MEAN_MOTION_DOT":-1.91e-6,"MEAN_MOTION_DDOT":0},{"OBJECT_NAME":"ARIANE 40 R/B","OBJECT_ID":"1993-061H","EPOCH":"2026-04-19T11:30:12.701952","MEAN_MOTION":14.32881716,"ECCENTRICITY":0.0011291,"INCLINATION":98.4852,"RA_OF_ASC_NODE":177.5475,"ARG_OF_PERICENTER":157.8691,"MEAN_ANOMALY":202.2983,"EPHEMERIS_TYPE":0,"CLASSIFICATION_TYPE":"U","NORAD_CAT_ID":22830,"ELEMENT_SET_NO":999,"REV_AT_EPOCH":69994,"BSTAR":6.2809073e-5,"MEAN_MOTION_DOT":1.29e-6,"MEAN_MOTION_DDOT":0},{"OBJECT_NAME":"COSMOS 2278","OBJECT_ID":"1994-023A","EPOCH":"2026-04-19T04:38:03.063264","MEAN_MOTION":14.14382945,"ECCENTRICITY":0.00100451,"INCLINATION":71.0518,"RA_OF_ASC_NODE":90.3548,"ARG_OF_PERICENTER":316.3582,"MEAN_ANOMALY":43.6746,"EPHEMERIS_TYPE":0,"CLASSIFICATION_TYPE":"U","NORAD_CAT_ID":23087,"ELEMENT_SET_NO":999,"REV_AT_EPOCH":65053,"BSTAR":0.00019626037,"MEAN_MOTION_DOT":3.29e-6,"MEAN_MOTION_DDOT":0},{"OBJECT_NAME":"SL-16 R/B","OBJECT_ID":"1994-023B","EPOCH":"2026-04-19T08:42:11.905056","MEAN_MOTION":14.15017062,"ECCENTRICITY":0.00054505,"INCLINATION":71.0012,"RA_OF_ASC_NODE":345.4721,"ARG_OF_PERICENTER":249.8269,"MEAN_ANOMALY":110.2268,"EPHEMERIS_TYPE":0,"CLASSIFICATION_TYPE":"U","NORAD_CAT_ID":23088,"ELEMENT_SET_NO":999,"REV_AT_EPOCH":65184,"BSTAR":-0.00010589509,"MEAN_MOTION_DOT":-2.53e-6,"MEAN_MOTION_DDOT":0},{"OBJECT_NAME":"SL-16 R/B","OBJECT_ID":"1994-074B","EPOCH":"2026-04-19T14:06:13.273632","MEAN_MOTION":14.79451444,"ECCENTRICITY":0.00081166,"INCLINATION":97.7049,"RA_OF_ASC_NODE":138.7376,"ARG_OF_PERICENTER":89.0814,"MEAN_ANOMALY":27.4067,"EPHEMERIS_TYPE":0,"CLASSIFICATION_TYPE":"U","NORAD_CAT_ID":23343,"ELEMENT_SET_NO":999,"REV_AT_EPOCH":69329,"BSTAR":4.4128386e-5,"MEAN_MOTION_DOT":2.8e-6,"MEAN_MOTION_DDOT":0},{"OBJECT_NAME":"SL-16 R/B","OBJECT_ID":"1994-077B","EPOCH":"2026-04-19T04:29:24.267552","MEAN_MOTION":14.15569151,"ECCENTRICITY":8.41e-5,"INCLINATION":70.9816,"RA_OF_ASC_NODE":267.2871,"ARG_OF_PERICENTER":148.2804,"MEAN_ANOMALY":211.837,"EPHEMERIS_TYPE":0,"CLASSIFICATION_TYPE":"U","NORAD_CAT_ID":23405,"ELEMENT_SET_NO":999,"REV_AT_EPOCH":62196,"BSTAR":0.00015545187,"MEAN_MOTION_DOT":2.56e-6,"MEAN_MOTION_DDOT":0},{"OBJECT_NAME":"ARIANE 40+ R/B","OBJECT_ID":"1995-021B","EPOCH":"2026-04-19T11:04:53.000256","MEAN_MOTION":14.398001,"ECCENTRICITY":0.00071288,"INCLINATION":98.4438,"RA_OF_ASC_NODE":180.3784,"ARG_OF_PERICENTER":30.192,"MEAN_ANOMALY":341.198,"EPHEMERIS_TYPE":0,"CLASSIFICATION_TYPE":"U","NORAD_CAT_ID":23561,"ELEMENT_SET_NO":999,"REV_AT_EPOCH":62511,"BSTAR":7.1308311e-5,"MEAN_MOTION_DOT":1.8e-6,"MEAN_MOTION_DDOT":0},{"OBJECT_NAME":"SL-16 R/B","OBJECT_ID":"1995-058B","EPOCH":"2026-04-19T04:42:18.004608","MEAN_MOTION":14.15504786,"ECCENTRICITY":0.00107339,"INCLINATION":71.0199,"RA_OF_ASC_NODE":95.2117,"ARG_OF_PERICENTER":51.0809,"MEAN_ANOMALY":309.1269,"EPHEMERIS_TYPE":0,"CLASSIFICATION_TYPE":"U","NORAD_CAT_ID":23705,"ELEMENT_SET_NO":999,"REV_AT_EPOCH":57358,"BSTAR":7.4718456e-5,"MEAN_MOTION_DOT":9.9e-7,"MEAN_MOTION_DDOT":0},{"OBJECT_NAME":"SL-16 R/B","OBJECT_ID":"1996-051B","EPOCH":"2026-04-19T07:42:54.217440","MEAN_MOTION":14.12426036,"ECCENTRICITY":0.00125466,"INCLINATION":70.7588,"RA_OF_ASC_NODE":89.2357,"ARG_OF_PERICENTER":78.451,"MEAN_ANOMALY":281.8018,"EPHEMERIS_TYPE":0,"CLASSIFICATION_TYPE":"U","NORAD_CAT_ID":24298,"ELEMENT_SET_NO":999,"REV_AT_EPOCH":52738,"BSTAR":4.1786703e-5,"MEAN_MOTION_DOT":2.8e-7,"MEAN_MOTION_DDOT":0},{"OBJECT_NAME":"ORBVIEW 2 (SEASTAR)","OBJECT_ID":"1997-037A","EPOCH":"2026-04-19T07:58:54.773760","MEAN_MOTION":14.35521815,"ECCENTRICITY":0.00012916,"INCLINATION":98.8633,"RA_OF_ASC_NODE":274.736,"ARG_OF_PERICENTER":322.1298,"MEAN_ANOMALY":37.9796,"EPHEMERIS_TYPE":0,"CLASSIFICATION_TYPE":"U","NORAD_CAT_ID":24883,"ELEMENT_SET_NO":999,"REV_AT_EPOCH":51430,"BSTAR":6.9792705e-5,"MEAN_MOTION_DOT":1.54e-6,"MEAN_MOTION_DDOT":0},{"OBJECT_NAME":"SL-16 R/B","OBJECT_ID":"1998-043G","EPOCH":"2026-04-19T06:51:40.102848","MEAN_MOTION":14.26058627,"ECCENTRICITY":0.000875,"INCLINATION":98.8319,"RA_OF_ASC_NODE":62.9545,"ARG_OF_PERICENTER":255.5189,"MEAN_ANOMALY":104.502,"EPHEMERIS_TYPE":0,"CLASSIFICATION_TYPE":"U","NORAD_CAT_ID":25400,"ELEMENT_SET_NO":999,"REV_AT_EPOCH":44477,"BSTAR":2.797e-5,"MEAN_MOTION_DOT":2.1e-7,"MEAN_MOTION_DDOT":0},{"OBJECT_NAME":"SL-16 R/B","OBJECT_ID":"1998-045B","EPOCH":"2026-04-19T07:52:47.414784","MEAN_MOTION":14.16198914,"ECCENTRICITY":0.00091318,"INCLINATION":71.0094,"RA_OF_ASC_NODE":96.1108,"ARG_OF_PERICENTER":311.1172,"MEAN_ANOMALY":48.9162,"EPHEMERIS_TYPE":0,"CLASSIFICATION_TYPE":"U","NORAD_CAT_ID":25407,"ELEMENT_SET_NO":999,"REV_AT_EPOCH":43285,"BSTAR":-5.5498649e-5,"MEAN_MOTION_DOT":-1.58e-6,"MEAN_MOTION_DDOT":0},{"OBJECT_NAME":"ISS (ZARYA)","OBJECT_ID":"1998-067A","EPOCH":"2026-04-19T11:45:32.833440","MEAN_MOTION":15.4883325,"ECCENTRICITY":0.00066312,"INCLINATION":51.6329,"RA_OF_ASC_NODE":230.6068,"ARG_OF_PERICENTER":325.6576,"MEAN_ANOMALY":34.3983,"EPHEMERIS_TYPE":0,"CLASSIFICATION_TYPE":"U","NORAD_CAT_ID":25544,"ELEMENT_SET_NO":999,"REV_AT_EPOCH":56265,"BSTAR":0.00019193879,"MEAN_MOTION_DOT":0.00010082,"MEAN_MOTION_DDOT":0},{"OBJECT_NAME":"CZ-4B R/B","OBJECT_ID":"1999-025C","EPOCH":"2026-04-19T14:28:32.117664","MEAN_MOTION":14.18273164,"ECCENTRICITY":0.00363193,"INCLINATION":98.6547,"RA_OF_ASC_NODE":152.8996,"ARG_OF_PERICENTER":225.9453,"MEAN_ANOMALY":295.9273,"EPHEMERIS_TYPE":0,"CLASSIFICATION_TYPE":"U","NORAD_CAT_ID":25732,"ELEMENT_SET_NO":999,"REV_AT_EPOCH":39396,"BSTAR":3.6496212e-5,"MEAN_MOTION_DOT":3.2e-7,"MEAN_MOTION_DDOT":0},{"OBJECT_NAME":"OKEAN-O","OBJECT_ID":"1999-039A","EPOCH":"2026-04-19T09:50:13.886880","MEAN_MOTION":14.80395702,"ECCENTRICITY":0.00013346,"INCLINATION":97.9366,"RA_OF_ASC_NODE":168.8705,"ARG_OF_PERICENTER":115.7501,"MEAN_ANOMALY":244.3849,"EPHEMERIS_TYPE":0,"CLASSIFICATION_TYPE":"U","NORAD_CAT_ID":25860,"ELEMENT_SET_NO":999,"REV_AT_EPOCH":44041,"BSTAR":6.0151757e-5,"MEAN_MOTION_DOT":4.07e-6,"MEAN_MOTION_DDOT":0},{"OBJECT_NAME":"SL-16 R/B","OBJECT_ID":"1999-039B","EPOCH":"2026-04-19T03:34:31.638720","MEAN_MOTION":14.8178381,"ECCENTRICITY":0.00159699,"INCLINATION":97.9888,"RA_OF_ASC_NODE":168.1679,"ARG_OF_PERICENTER":123.6056,"MEAN_ANOMALY":236.6684,"EPHEMERIS_TYPE":0,"CLASSIFICATION_TYPE":"U","NORAD_CAT_ID":25861,"ELEMENT_SET_NO":999,"REV_AT_EPOCH":44285,"BSTAR":5.1993618e-5,"MEAN_MOTION_DOT":3.57e-6,"MEAN_MOTION_DDOT":0},{"OBJECT_NAME":"DELTA 2 R/B","OBJECT_ID":"1999-041E","EPOCH":"2026-04-19T08:34:52.581792","MEAN_MOTION":14.11920447,"ECCENTRICITY":0.05025273,"INCLINATION":51.7597,"RA_OF_ASC_NODE":138.8152,"ARG_OF_PERICENTER":108.3525,"MEAN_ANOMALY":257.2723,"EPHEMERIS_TYPE":0,"CLASSIFICATION_TYPE":"U","NORAD_CAT_ID":25876,"ELEMENT_SET_NO":999,"REV_AT_EPOCH":36877,"BSTAR":6.6212877e-5,"MEAN_MOTION_DOT":1.6e-6,"MEAN_MOTION_DDOT":0}]
