{"fetched_at":"2026-04-20T10:00:38Z","count":6462,"tles":[{"name":"ISS (ZARYA)","line1":"1 25544U 98067A   26109.48996335  .00010082  00000+0  19194-3 0  9992","line2":"2 25544  51.6329 230.6068 0006631 325.6576  34.3983 15.48833250562656","category":"ISS"},{"name":"OKEAN-O","line1":"1 25860U 99039A   26109.40988295  .00000407  00000+0  60152-4 0  9992","line2":"2 25860  97.9366 168.8705 0001334 115.7501 244.3849 14.80395702440415","category":"Other"},{"name":"SL-16 R/B","line1":"1 25861U 99039B   26109.14897730  .00000357  00000+0  51994-4 0  9995","line2":"2 25861  97.9888 168.1679 0015969 123.6056 236.6684 14.81783810442853","category":"Other"},{"name":"CZ-4B R/B","line1":"1 25732U 99025C   26109.60314951  .00000032  00000+0  36496-4 0  9997","line2":"2 25732  98.6547 152.8996 0036319 225.9453 295.9273 14.18273164393966","category":"Other"},{"name":"COSMOS 2278","line1":"1 23087U 94023A   26109.19309101  .00000329  00000+0  19626-3 0  9990","line2":"2 23087  71.0518  90.3548 0010045 316.3582  43.6746 14.14382945650531","category":"Other"},{"name":"SL-16 R/B","line1":"1 23088U 94023B   26109.36263779 -.00000253  00000+0 -10590-3 0  9999","line2":"2 23088  71.0012 345.4721 0005450 249.8269 110.2268 14.15017062651845","category":"Other"},{"name":"SL-16 R/B","line1":"1 22803U 93059B   26109.48450191 -.00000191  00000+0 -70501-4 0  9990","line2":"2 22803  70.9891 285.0976 0016122 155.0122 205.1786 14.17238838685313","category":"Other"},{"name":"SL-16 R/B","line1":"1 24298U 96051B   26109.32146085  .00000028  00000+0  41787-4 0  9993","line2":"2 24298  70.7588  89.2357 0012546  78.4510 281.8018 14.12426036527381","category":"Other"},{"name":"DELTA 2 R/B","line1":"1 25876U 99041E   26109.35755303  .00000160  00000+0  66213-4 0  9998","line2":"2 25876  51.7597 138.8152 0502527 108.3525 257.2723 14.11920447368779","category":"Other"},{"name":"SL-16 R/B","line1":"1 25400U 98043G   26109.28588082  .00000021  00000+0  27970-4 0  9995","line2":"2 25400  98.8319  62.9545 0008750 255.5189 104.5020 14.26058627444776","category":"Other"},{"name":"ORBVIEW 2 (SEASTAR)","line1":"1 24883U 97037A   26109.33257840  .00000154  00000+0  69793-4 0  9998","line2":"2 24883  98.8633 274.7360 0001291 322.1298  37.9796 14.35521815514302","category":"Other"},{"name":"ARIANE 40 R/B","line1":"1 22830U 93061H   26109.47931368  .00000129  00000+0  62809-4 0  9993","line2":"2 22830  98.4852 177.5475 0011291 157.8691 202.2983 14.32881716699944","category":"Other"},{"name":"SL-16 R/B","line1":"1 23343U 94074B   26109.58765363  .00000280  00000+0  44128-4 0  9992","line2":"2 23343  97.7049 138.7376 0008116  89.0814  27.4067 14.79451444693292","category":"Other"},{"name":"SL-16 R/B","line1":"1 25407U 98045B   26109.32832656 -.00000158  00000+0 -55499-4 0  9998","line2":"2 25407  71.0094  96.1108 0009131 311.1172  48.9162 14.16198914432852","category":"Other"},{"name":"ARIANE 40+ R/B","line1":"1 23561U 95021B   26109.46172454  .00000180  00000+0  71308-4 0  9996","line2":"2 23561  98.4438 180.3784 0007128  30.1920 341.1980 14.39800100625116","category":"Other"},{"name":"SL-16 R/B","line1":"1 23405U 94077B   26109.18708643  .00000256  00000+0  15545-3 0  9991","line2":"2 23405  70.9816 267.2871 0000841 148.2804 211.8370 14.15569151621964","category":"Other"},{"name":"SL-16 R/B","line1":"1 23705U 95058B   26109.19604172  .00000099  00000+0  74718-4 0  9990","line2":"2 23705  71.0199  95.2117 0010733  51.0809 309.1269 14.15504786573587","category":"Other"}]}